COSMOS 2242             
1 22626U 93024A   26095.84775670  .00002579  00000+0  22328-3 0  9994
2 22626  82.5180 240.7322 0015606 209.5043 150.5300 14.96681416784453
SL-16 R/B               
1 22803U 93059B   26095.86238844  .00000180  00000+0  11290-3 0  9990
2 22803  70.9904 313.8273 0016958 176.2209 183.9046 14.17235391683384
ARIANE 40 R/B           
1 22830U 93061H   26095.72286137  .00000315  00000+0  13120-3 0  9990
2 22830  98.4867 164.0703 0010451 198.0402 162.0412 14.32876696697971
COSMOS 2278             
1 23087U 94023A   26095.75560176  .00000058  00000+0  55060-4 0  9999
2 23087  71.0504 118.4724 0009382 333.7113  26.3532 14.14375158648636
SL-16 R/B               
1 23088U 94023B   26095.50710299  .00000120  00000+0  86624-4 0  9996
2 23088  71.0032  14.5673 0005608 262.4104  97.6382 14.15020032649888
SL-16 R/B               
1 23343U 94074B   26095.86870477  .00000622  00000+0  89963-4 0  9996
2 23343  97.7067 125.5808 0007784 125.6803  48.2543 14.79441090691262
SL-16 R/B               
1 23405U 94077B   26095.83156448 -.00000206  00000+0 -80723-4 0  9995
2 23405  70.9817 295.3886 0001510 186.5703 173.5400 14.15567578620070
ARIANE 40+ R/B          
1 23561U 95021B   26095.79051465  .00000423  00000+0  14884-3 0  9999
2 23561  98.4451 166.8996 0007767  66.7534  44.0500 14.39793486623146
SL-16 R/B               
1 23705U 95058B   26095.76922057  .00000030  00000+0  39767-4 0  9992
2 23705  71.0190 123.4043 0010355  76.1437 284.0837 14.15497955571685
SL-16 R/B               
1 24298U 96051B   26095.79470359  .00000087  00000+0  73471-4 0  9992
2 24298  70.7579 117.8690 0013006 103.2354 257.0217 14.12423692525473
ORBVIEW 2 (SEASTAR)     
1 24883U 97037A   26095.46210494  .00000379  00000+0  14784-3 0  9998
2 24883  98.8613 260.4898 0002009  10.8613 349.2615 14.35515062512313
SL-16 R/B               
1 25400U 98043G   26095.81458543  .00000107  00000+0  63850-4 0  9998
2 25400  98.8300  49.3781 0008911 299.3212  60.7077 14.26056544442857
