CCSDS_OMM_VERS = 2.0
CREATION_DATE  = 
ORIGINATOR     = 

OBJECT_NAME    = COSMOS 2242
OBJECT_ID      = 1993-024A
CENTER_NAME    = EARTH
REF_FRAME      = TEME
TIME_SYSTEM    = UTC
MEAN_ELEMENT_THEORY = SGP/SGP4

EPOCH          = 2026-04-05T20:20:46.178880
MEAN_MOTION    = 14.96681416
ECCENTRICITY   = .0015606
INCLINATION    = 82.5180
RA_OF_ASC_NODE = 240.7322
ARG_OF_PERICENTER = 209.5043
MEAN_ANOMALY   = 150.5300

EPHEMERIS_TYPE = 0
CLASSIFICATION_TYPE = U
NORAD_CAT_ID   = 22626
ELEMENT_SET_NO = 999
REV_AT_EPOCH   = 78445
BSTAR          = .22328E-3
MEAN_MOTION_DOT = .2579E-4
MEAN_MOTION_DDOT = 0

CCSDS_OMM_VERS = 2.0
CREATION_DATE  = 
ORIGINATOR     = 

OBJECT_NAME    = SL-16 R/B
OBJECT_ID      = 1993-059B
CENTER_NAME    = EARTH
REF_FRAME      = TEME
TIME_SYSTEM    = UTC
MEAN_ELEMENT_THEORY = SGP/SGP4

EPOCH          = 2026-04-05T20:41:50.361216
MEAN_MOTION    = 14.17235391
ECCENTRICITY   = .0016958
INCLINATION    = 70.9904
RA_OF_ASC_NODE = 313.8273
ARG_OF_PERICENTER = 176.2209
MEAN_ANOMALY   = 183.9046

EPHEMERIS_TYPE = 0
CLASSIFICATION_TYPE = U
NORAD_CAT_ID   = 22803
ELEMENT_SET_NO = 999
REV_AT_EPOCH   = 68338
BSTAR          = .1129E-3
MEAN_MOTION_DOT = .18E-5
MEAN_MOTION_DDOT = 0

CCSDS_OMM_VERS = 2.0
CREATION_DATE  = 
ORIGINATOR     = 

OBJECT_NAME    = ARIANE 40 R/B
OBJECT_ID      = 1993-061H
CENTER_NAME    = EARTH
REF_FRAME      = TEME
TIME_SYSTEM    = UTC
MEAN_ELEMENT_THEORY = SGP/SGP4

EPOCH          = 2026-04-05T17:20:55.222368
MEAN_MOTION    = 14.32876696
ECCENTRICITY   = .0010451
INCLINATION    = 98.4867
RA_OF_ASC_NODE = 164.0703
ARG_OF_PERICENTER = 198.0402
MEAN_ANOMALY   = 162.0412

EPHEMERIS_TYPE = 0
CLASSIFICATION_TYPE = U
NORAD_CAT_ID   = 22830
ELEMENT_SET_NO = 999
REV_AT_EPOCH   = 69797
BSTAR          = .1312E-3
MEAN_MOTION_DOT = .315E-5
MEAN_MOTION_DDOT = 0

CCSDS_OMM_VERS = 2.0
CREATION_DATE  = 
ORIGINATOR     = 

OBJECT_NAME    = COSMOS 2278
OBJECT_ID      = 1994-023A
CENTER_NAME    = EARTH
REF_FRAME      = TEME
TIME_SYSTEM    = UTC
MEAN_ELEMENT_THEORY = SGP/SGP4

EPOCH          = 2026-04-05T18:08:03.992064
MEAN_MOTION    = 14.14375158
ECCENTRICITY   = .0009382
INCLINATION    = 71.0504
RA_OF_ASC_NODE = 118.4724
ARG_OF_PERICENTER = 333.7113
MEAN_ANOMALY   = 26.3532

EPHEMERIS_TYPE = 0
CLASSIFICATION_TYPE = U
NORAD_CAT_ID   = 23087
ELEMENT_SET_NO = 999
REV_AT_EPOCH   = 64863
BSTAR          = .5506E-4
MEAN_MOTION_DOT = .58E-6
MEAN_MOTION_DDOT = 0

CCSDS_OMM_VERS = 2.0
CREATION_DATE  = 
ORIGINATOR     = 

OBJECT_NAME    = SL-16 R/B
OBJECT_ID      = 1994-023B
CENTER_NAME    = EARTH
REF_FRAME      = TEME
TIME_SYSTEM    = UTC
MEAN_ELEMENT_THEORY = SGP/SGP4

EPOCH          = 2026-04-05T12:10:13.698336
MEAN_MOTION    = 14.15020032
ECCENTRICITY   = .00056086
INCLINATION    = 71.0032
RA_OF_ASC_NODE = 14.5673
ARG_OF_PERICENTER = 262.4104
MEAN_ANOMALY   = 97.6382

EPHEMERIS_TYPE = 0
CLASSIFICATION_TYPE = U
NORAD_CAT_ID   = 23088
ELEMENT_SET_NO = 999
REV_AT_EPOCH   = 64988
BSTAR          = .86623944E-4
MEAN_MOTION_DOT = .12E-5
MEAN_MOTION_DDOT = 0

CCSDS_OMM_VERS = 2.0
CREATION_DATE  = 
ORIGINATOR     = 

OBJECT_NAME    = SL-16 R/B
OBJECT_ID      = 1994-074B
CENTER_NAME    = EARTH
REF_FRAME      = TEME
TIME_SYSTEM    = UTC
MEAN_ELEMENT_THEORY = SGP/SGP4

EPOCH          = 2026-04-05T20:50:56.092128
MEAN_MOTION    = 14.79441090
ECCENTRICITY   = .0007784
INCLINATION    = 97.7067
RA_OF_ASC_NODE = 125.5808
ARG_OF_PERICENTER = 125.6803
MEAN_ANOMALY   = 48.2543

EPHEMERIS_TYPE = 0
CLASSIFICATION_TYPE = U
NORAD_CAT_ID   = 23343
ELEMENT_SET_NO = 999
REV_AT_EPOCH   = 69126
BSTAR          = .89963E-4
MEAN_MOTION_DOT = .622E-5
MEAN_MOTION_DDOT = 0

CCSDS_OMM_VERS = 2.0
CREATION_DATE  = 
ORIGINATOR     = 

OBJECT_NAME    = SL-16 R/B
OBJECT_ID      = 1994-077B
CENTER_NAME    = EARTH
REF_FRAME      = TEME
TIME_SYSTEM    = UTC
MEAN_ELEMENT_THEORY = SGP/SGP4

EPOCH          = 2026-04-05T19:57:27.171072
MEAN_MOTION    = 14.15567578
ECCENTRICITY   = .000151
INCLINATION    = 70.9817
RA_OF_ASC_NODE = 295.3886
ARG_OF_PERICENTER = 186.5703
MEAN_ANOMALY   = 173.5400

EPHEMERIS_TYPE = 0
CLASSIFICATION_TYPE = U
NORAD_CAT_ID   = 23405
ELEMENT_SET_NO = 999
REV_AT_EPOCH   = 62007
BSTAR          = -.80723E-4
MEAN_MOTION_DOT = -.206E-5
MEAN_MOTION_DDOT = 0

CCSDS_OMM_VERS = 2.0
CREATION_DATE  = 
ORIGINATOR     = 

OBJECT_NAME    = ARIANE 40+ R/B
OBJECT_ID      = 1995-021B
CENTER_NAME    = EARTH
REF_FRAME      = TEME
TIME_SYSTEM    = UTC
MEAN_ELEMENT_THEORY = SGP/SGP4

EPOCH          = 2026-04-05T18:58:20.465760
MEAN_MOTION    = 14.39793486
ECCENTRICITY   = .0007767
INCLINATION    = 98.4451
RA_OF_ASC_NODE = 166.8996
ARG_OF_PERICENTER = 66.7534
MEAN_ANOMALY   = 44.0500

EPHEMERIS_TYPE = 0
CLASSIFICATION_TYPE = U
NORAD_CAT_ID   = 23561
ELEMENT_SET_NO = 999
REV_AT_EPOCH   = 62314
BSTAR          = .14884E-3
MEAN_MOTION_DOT = .423E-5
MEAN_MOTION_DDOT = 0

CCSDS_OMM_VERS = 2.0
CREATION_DATE  = 
ORIGINATOR     = 

OBJECT_NAME    = SL-16 R/B
OBJECT_ID      = 1995-058B
CENTER_NAME    = EARTH
REF_FRAME      = TEME
TIME_SYSTEM    = UTC
MEAN_ELEMENT_THEORY = SGP/SGP4

EPOCH          = 2026-04-05T18:27:40.657248
MEAN_MOTION    = 14.15497955
ECCENTRICITY   = .0010355
INCLINATION    = 71.0190
RA_OF_ASC_NODE = 123.4043
ARG_OF_PERICENTER = 76.1437
MEAN_ANOMALY   = 284.0837

EPHEMERIS_TYPE = 0
CLASSIFICATION_TYPE = U
NORAD_CAT_ID   = 23705
ELEMENT_SET_NO = 999
REV_AT_EPOCH   = 57168
BSTAR          = .39767E-4
MEAN_MOTION_DOT = .3E-6
MEAN_MOTION_DDOT = 0

CCSDS_OMM_VERS = 2.0
CREATION_DATE  = 
ORIGINATOR     = 

OBJECT_NAME    = SL-16 R/B
OBJECT_ID      = 1996-051B
CENTER_NAME    = EARTH
REF_FRAME      = TEME
TIME_SYSTEM    = UTC
MEAN_ELEMENT_THEORY = SGP/SGP4

EPOCH          = 2026-04-05T19:04:22.390176
MEAN_MOTION    = 14.12423692
ECCENTRICITY   = .0013006
INCLINATION    = 70.7579
RA_OF_ASC_NODE = 117.8690
ARG_OF_PERICENTER = 103.2354
MEAN_ANOMALY   = 257.0217

EPHEMERIS_TYPE = 0
CLASSIFICATION_TYPE = U
NORAD_CAT_ID   = 24298
ELEMENT_SET_NO = 999
REV_AT_EPOCH   = 52547
BSTAR          = .73471E-4
MEAN_MOTION_DOT = .87E-6
MEAN_MOTION_DDOT = 0

CCSDS_OMM_VERS = 2.0
CREATION_DATE  = 
ORIGINATOR     = 

OBJECT_NAME    = ORBVIEW 2 (SEASTAR)
OBJECT_ID      = 1997-037A
CENTER_NAME    = EARTH
REF_FRAME      = TEME
TIME_SYSTEM    = UTC
MEAN_ELEMENT_THEORY = SGP/SGP4

EPOCH          = 2026-04-05T11:05:25.866816
MEAN_MOTION    = 14.35515062
ECCENTRICITY   = .00020093
INCLINATION    = 98.8613
RA_OF_ASC_NODE = 260.4898
ARG_OF_PERICENTER = 10.8613
MEAN_ANOMALY   = 349.2615

EPHEMERIS_TYPE = 0
CLASSIFICATION_TYPE = U
NORAD_CAT_ID   = 24883
ELEMENT_SET_NO = 999
REV_AT_EPOCH   = 51231
BSTAR          = .14784477E-3
MEAN_MOTION_DOT = .379E-5
MEAN_MOTION_DDOT = 0

CCSDS_OMM_VERS = 2.0
CREATION_DATE  = 
ORIGINATOR     = 

OBJECT_NAME    = SL-16 R/B
OBJECT_ID      = 1998-043G
CENTER_NAME    = EARTH
REF_FRAME      = TEME
TIME_SYSTEM    = UTC
MEAN_ELEMENT_THEORY = SGP/SGP4

EPOCH          = 2026-04-05T19:33:00.181152
MEAN_MOTION    = 14.26056544
ECCENTRICITY   = .0008911
INCLINATION    = 98.8300
RA_OF_ASC_NODE = 49.3781
ARG_OF_PERICENTER = 299.3212
MEAN_ANOMALY   = 60.7077

EPHEMERIS_TYPE = 0
CLASSIFICATION_TYPE = U
NORAD_CAT_ID   = 25400
ELEMENT_SET_NO = 999
REV_AT_EPOCH   = 44285
BSTAR          = .6385E-4
MEAN_MOTION_DOT = .107E-5
MEAN_MOTION_DDOT = 0

